{"type": "FeatureCollection", "features": [ {"type": "Feature", "properties": {"norad_id": 66866, "name": "STARLINK-36126", "group": "last-30-days", "lat": -9.144884846894067, "lon": -70.68339386106338, "alt_km": 329.7565624161052, "timestamp": "2025-12-16T10:53:44.206965+00:00", "meta": {"OBJECT_NAME": "STARLINK-36126", "OBJECT_ID": "2025-281U", "EPOCH": "2025-12-15T22:00:01.999584", "MEAN_MOTION": 15.82280218, "ECCENTRICITY": 0.00015763, "INCLINATION": 43.0006, "RA_OF_ASC_NODE": 102.6601, "ARG_OF_PERICENTER": 280.7658, "MEAN_ANOMALY": 90.0129, "EPHEMERIS_TYPE": 0, "CLASSIFICATION_TYPE": "U", "NORAD_CAT_ID": 66866, "ELEMENT_SET_NO": 999, "REV_AT_EPOCH": 194, "BSTAR": -0.0077295372, "MEAN_MOTION_DOT": -0.01459673, "MEAN_MOTION_DDOT": 0}, "tle": {"line1": "1 66866U 25281U   25349.91668981 -.01459673  00000+0 -77295-2 0  9999", "line2": "2 66866  43.0006 102.6601 0001576 280.7658  90.0129 15.82280218  1940"}}, "geometry": {"type": "Point", "coordinates": [-70.68339386106338, -9.144884846894067]}}, {"type": "Feature", "properties": {"norad_id": 66867, "name": "STARLINK-36101", "group": "last-30-days", "lat": -10.980230515920757, "lon": -68.6205548984929, "alt_km": 330.12127227015935, "timestamp": "2025-12-16T10:53:44.206975+00:00", "meta": {"OBJECT_NAME": "STARLINK-36101", "OBJECT_ID": "2025-281V", "EPOCH": "2025-12-15T22:00:01.999584", "MEAN_MOTION": 15.82202124, "ECCENTRICITY": 0.0001705, "INCLINATION": 43.0008, "RA_OF_ASC_NODE": 102.6528, "ARG_OF_PERICENTER": 279.8763, "MEAN_ANOMALY": 93.8113, "EPHEMERIS_TYPE": 0, "CLASSIFICATION_TYPE": "U", "NORAD_CAT_ID": 66867, "ELEMENT_SET_NO": 999, "REV_AT_EPOCH": 175, "BSTAR": -0.0078173708, "MEAN_MOTION_DOT": -0.01469606, "MEAN_MOTION_DDOT": 0}, "tle": {"line1": "1 66867U 25281V   25349.91668981 -.01469606  00000+0 -78174-2 0  9994", "line2": "2 66867  43.0008 102.6528 0001705 279.8763  93.8113 15.82202124  1754"}}, "geometry": {"type": "Point", "coordinates": [-68.6205548984929, -10.980230515920757]}}, {"type": "Feature", "properties": {"norad_id": 66868, "name": "STARLINK-36108", "group": "last-30-days", "lat": -12.876545811814289, "lon": -66.44514164265212, "alt_km": 330.4618868101361, "timestamp": "2025-12-16T10:53:44.206987+00:00", "meta": {"OBJECT_NAME": "STARLINK-36108", "OBJECT_ID": "2025-281W", "EPOCH": "2025-12-15T22:00:01.999584", "MEAN_MOTION": 15.82112279, "ECCENTRICITY": 0.00017691, "INCLINATION": 43.0008, "RA_OF_ASC_NODE": 102.6447, "ARG_OF_PERICENTER": 277.1629, "MEAN_ANOMALY": 99.5717, "EPHEMERIS_TYPE": 0, "CLASSIFICATION_TYPE": "U", "NORAD_CAT_ID": 66868, "ELEMENT_SET_NO": 999, "REV_AT_EPOCH": 175, "BSTAR": -0.0079216212, "MEAN_MOTION_DOT": -0.01481372, "MEAN_MOTION_DDOT": 0}, "tle": {"line1": "1 66868U 25281W   25349.91668981 -.01481372  00000+0 -79216-2 0  9997", "line2": "2 66868  43.0008 102.6447 0001769 277.1629  99.5717 15.82112279  1751"}}, "geometry": {"type": "Point", "coordinates": [-66.44514164265212, -12.876545811814289]}}, {"type": "Feature", "properties": {"norad_id": 66869, "name": "STARLINK-36092", "group": "last-30-days", "lat": -14.49225590231633, "lon": -64.5481945514154, "alt_km": 330.79767922919746, "timestamp": "2025-12-16T10:53:44.206999+00:00", "meta": {"OBJECT_NAME": "STARLINK-36092", "OBJECT_ID": "2025-281X", "EPOCH": "2025-12-15T22:00:01.999584", "MEAN_MOTION": 15.82065235, "ECCENTRICITY": 0.00017509, "INCLINATION": 43.0007, "RA_OF_ASC_NODE": 102.6383, "ARG_OF_PERICENTER": 279.5985, "MEAN_ANOMALY": 99.6944, "EPHEMERIS_TYPE": 0, "CLASSIFICATION_TYPE": "U", "NORAD_CAT_ID": 66869, "ELEMENT_SET_NO": 999, "REV_AT_EPOCH": 194, "BSTAR": -0.0079904158, "MEAN_MOTION_DOT": -0.01489775, "MEAN_MOTION_DDOT": 0}, "tle": {"line1": "1 66869U 25281X   25349.91668981 -.01489775  00000+0 -79904-2 0  9997", "line2": "2 66869  43.0007 102.6383 0001750 279.5985  99.6944 15.82065235  1944"}}, "geometry": {"type": "Point", "coordinates": [-64.5481945514154, -14.49225590231633]}}, {"type": "Feature", "properties": {"norad_id": 66870, "name": "STARLINK-36114", "group": "last-30-days", "lat": -16.353722111890598, "lon": -62.30433129064617, "alt_km": 331.1084807674415, "timestamp": "2025-12-16T10:53:44.207011+00:00", "meta": {"OBJECT_NAME": "STARLINK-36114", "OBJECT_ID": "2025-281Y", "EPOCH": "2025-12-15T22:00:01.999584", "MEAN_MOTION": 15.81971651, "ECCENTRICITY": 0.00017854, "INCLINATION": 43.0006, "RA_OF_ASC_NODE": 102.6306, "ARG_OF_PERICENTER": 276.076, "MEAN_ANOMALY": 106.2748, "EPHEMERIS_TYPE": 0, "CLASSIFICATION_TYPE": "U", "NORAD_CAT_ID": 66870, "ELEMENT_SET_NO": 999, "REV_AT_EPOCH": 181, "BSTAR": -0.008102864, "MEAN_MOTION_DOT": -0.01502391, "MEAN_MOTION_DDOT": 0}, "tle": {"line1": "1 66870U 25281Y   25349.91668981 -.01502391  00000+0 -81029-2 0  9990", "line2": "2 66870  43.0006 102.6306 0001785 276.0760 106.2748 15.81971651  1811"}}, "geometry": {"type": "Point", "coordinates": [-62.30433129064617, -16.353722111890598]}}, {"type": "Feature", "properties": {"norad_id": 66871, "name": "STARLINK-36095", "group": "last-30-days", "lat": -18.206718089980185, "lon": -59.99792960830548, "alt_km": 331.67041236230943, "timestamp": "2025-12-16T10:53:44.207022+00:00", "meta": {"OBJECT_NAME": "STARLINK-36095", "OBJECT_ID": "2025-281Z", "EPOCH": "2025-12-15T22:00:01.999584", "MEAN_MOTION": 15.81876806, "ECCENTRICITY": 0.00016805, "INCLINATION": 43.0004, "RA_OF_ASC_NODE": 102.6221, "ARG_OF_PERICENTER": 280.1389, "MEAN_ANOMALY": 105.3023, "EPHEMERIS_TYPE": 0, "CLASSIFICATION_TYPE": "U", "NORAD_CAT_ID": 66871, "ELEMENT_SET_NO": 999, "REV_AT_EPOCH": 194, "BSTAR": -0.0082448627, "MEAN_MOTION_DOT": -0.01519448, "MEAN_MOTION_DDOT": 0}, "tle": {"line1": "1 66871U 25281Z   25349.91668981 -.01519448  00000+0 -82449-2 0  9999", "line2": "2 66871  43.0004 102.6221 0001680 280.1389 105.3023 15.81876806  1949"}}, "geometry": {"type": "Point", "coordinates": [-59.99792960830548, -18.206718089980185]}}, {"type": "Feature", "properties": {"norad_id": 66872, "name": "STARLINK-36082", "group": "last-30-days", "lat": -19.656609073804116, "lon": -58.133133238520664, "alt_km": 331.9681183056691, "timestamp": "2025-12-16T10:53:44.207032+00:00", "meta": {"OBJECT_NAME": "STARLINK-36082", "OBJECT_ID": "2025-281AA", "EPOCH": "2025-12-15T22:00:01.999584", "MEAN_MOTION": 15.81854686, "ECCENTRICITY": 0.00017176, "INCLINATION": 43.0005, "RA_OF_ASC_NODE": 102.6162, "ARG_OF_PERICENTER": 283.6023, "MEAN_ANOMALY": 104.1966, "EPHEMERIS_TYPE": 0, "CLASSIFICATION_TYPE": "U", "NORAD_CAT_ID": 66872, "ELEMENT_SET_NO": 999, "REV_AT_EPOCH": 181, "BSTAR": -0.0083757036, "MEAN_MOTION_DOT": -0.01539221, "MEAN_MOTION_DDOT": 0}, "tle": {"line1": "1 66872U 25281AA  25349.91668981 -.01539221  00000+0 -83757-2 0  9994", "line2": "2 66872  43.0005 102.6162 0001717 283.6023 104.1966 15.81854686  1810"}}, "geometry": {"type": "Point", "coordinates": [-58.133133238520664, -19.656609073804116]}}, {"type": "Feature", "properties": {"norad_id": 66873, "name": "STARLINK-36128", "group": "last-30-days", "lat": -24.31296895501985, "lon": -51.69027951237025, "alt_km": 333.16297708668844, "timestamp": "2025-12-16T10:53:44.207042+00:00", "meta": {"OBJECT_NAME": "STARLINK-36128", "OBJECT_ID": "2025-281AB", "EPOCH": "2025-12-15T22:00:01.999584", "MEAN_MOTION": 15.81673166, "ECCENTRICITY": 0.00015889, "INCLINATION": 43.0001, "RA_OF_ASC_NODE": 102.5954, "ARG_OF_PERICENTER": 281.9777, "MEAN_ANOMALY": 113.9425, "EPHEMERIS_TYPE": 0, "CLASSIFICATION_TYPE": "U", "NORAD_CAT_ID": 66873, "ELEMENT_SET_NO": 999, "REV_AT_EPOCH": 194, "BSTAR": -0.0093259493, "MEAN_MOTION_DOT": -0.01677451, "MEAN_MOTION_DDOT": 0}, "tle": {"line1": "1 66873U 25281AB  25349.91668981 -.01677451  00000+0 -93259-2 0  9991", "line2": "2 66873  43.0001 102.5954 0001588 281.9777 113.9425 15.81673166  1942"}}, "geometry": {"type": "Point", "coordinates": [-51.69027951237025, -24.31296895501985]}}, {"type": "Feature", "properties": {"norad_id": 66874, "name": "STARLINK-36129", "group": "last-30-days", "lat": -21.38172088579901, "lon": -55.834635445012886, "alt_km": 332.5153625348994, "timestamp": "2025-12-16T10:53:44.207051+00:00", "meta": {"OBJECT_NAME": "STARLINK-36129", "OBJECT_ID": "2025-281AC", "EPOCH": "2025-12-15T22:00:01.999584", "MEAN_MOTION": 15.81786615, "ECCENTRICITY": 0.0001668, "INCLINATION": 43.0003, "RA_OF_ASC_NODE": 102.6087, "ARG_OF_PERICENTER": 284.3406, "MEAN_ANOMALY": 106.4429, "EPHEMERIS_TYPE": 0, "CLASSIFICATION_TYPE": "U", "NORAD_CAT_ID": 66874, "ELEMENT_SET_NO": 999, "REV_AT_EPOCH": 194, "BSTAR": -0.0088296663, "MEAN_MOTION_DOT": -0.0160732, "MEAN_MOTION_DDOT": 0}, "tle": {"line1": "1 66874U 25281AC  25349.91668981 -.01607320  00000+0 -88297-2 0  9996", "line2": "2 66874  43.0003 102.6087 0001668 284.3406 106.4429 15.81786615  1943"}}, "geometry": {"type": "Point", "coordinates": [-55.834635445012886, -21.38172088579901]}}, {"type": "Feature", "properties": {"norad_id": 66875, "name": "STARLINK-36053", "group": "last-30-days", "lat": -25.788488965137873, "lon": -49.46657175782829, "alt_km": 333.5482196560515, "timestamp": "2025-12-16T10:53:44.207064+00:00", "meta": {"OBJECT_NAME": "STARLINK-36053", "OBJECT_ID": "2025-281AD", "EPOCH": "2025-12-15T22:00:01.999584", "MEAN_MOTION": 15.81576893, "ECCENTRICITY": 0.00016963, "INCLINATION": 43.0003, "RA_OF_ASC_NODE": 102.588, "ARG_OF_PERICENTER": 283.2384, "MEAN_ANOMALY": 115.3939, "EPHEMERIS_TYPE": 0, "CLASSIFICATION_TYPE": "U", "NORAD_CAT_ID": 66875, "ELEMENT_SET_NO": 999, "REV_AT_EPOCH": 194, "BSTAR": -0.0094660421, "MEAN_MOTION_DOT": -0.01692602, "MEAN_MOTION_DDOT": 0}, "tle": {"line1": "1 66875U 25281AD  25349.91668981 -.01692602  00000+0 -94660-2 0  9995", "line2": "2 66875  43.0003 102.5880 0001696 283.2384 115.3939 15.81576893  1948"}}, "geometry": {"type": "Point", "coordinates": [-49.46657175782829, -25.788488965137873]}}]}